{"type":"FeatureCollection","name":"approx_corridors_in_pk","metadata":{"source":"Hand-authored from CPEC docs, TRAI filings, operator network diagrams, press releases","fetched_at":1780471881,"scope":"Approximate backbone corridors for India + Pakistan. Visually distinguished from precision GIS on the map.","corridor_count":16},"features":[{"type":"Feature","geometry":{"type":"LineString","coordinates":[[77.209,28.6139],[75.7873,26.9124],[72.5714,23.0225],[72.8311,21.1702],[72.8777,19.076]]},"properties":{"name":"Delhi \u2013 Mumbai backbone","country":"India","operators":"Bharti Airtel, Reliance Jio, BSNL, RailTel","source":"TRAI filings + operator network diagrams (approximate)","approximate":true}},{"type":"Feature","geometry":{"type":"LineString","coordinates":[[77.209,28.6139],[80.9462,26.8467],[80.3319,26.4499],[85.1376,25.5941],[88.3639,22.5726]]},"properties":{"name":"Delhi \u2013 Kolkata backbone","country":"India","operators":"Bharti Airtel, Reliance Jio, BSNL","source":"TRAI filings + operator network diagrams (approximate)","approximate":true}},{"type":"Feature","geometry":{"type":"LineString","coordinates":[[72.8777,19.076],[73.8567,18.5204],[78.4867,17.385],[77.5946,12.9716],[80.2707,13.0827]]},"properties":{"name":"Mumbai \u2013 Chennai backbone","country":"India","operators":"Bharti Airtel, Reliance Jio, BSNL","source":"TRAI filings + operator network diagrams (approximate)","approximate":true}},{"type":"Feature","geometry":{"type":"LineString","coordinates":[[80.2707,13.0827],[77.5946,12.9716],[78.4867,17.385],[80.2707,13.0827]]},"properties":{"name":"Chennai \u2013 Hyderabad \u2013 Bangalore triangle","country":"India","operators":"Reliance Jio, BSNL, Bharti Airtel","source":"Operator network diagrams (approximate)","approximate":true}},{"type":"Feature","geometry":{"type":"LineString","coordinates":[[72.8777,19.076],[72.8311,21.1702],[75.8577,22.7196],[77.4126,23.2599],[79.0882,21.1458]]},"properties":{"name":"Mumbai \u2013 Indore \u2013 Bhopal \u2013 Nagpur corridor","country":"India","operators":"BSNL, RailTel","source":"Operator network diagrams (approximate)","approximate":true}},{"type":"Feature","geometry":{"type":"LineString","coordinates":[[88.3639,22.5726],[85.1376,25.5941],[91.7362,26.1445]]},"properties":{"name":"Kolkata \u2013 Guwahati Northeast corridor","country":"India","operators":"BSNL, Powergrid Telecom","source":"BSNL public network map (approximate)","approximate":true}},{"type":"Feature","geometry":{"type":"LineString","coordinates":[[80.2707,13.0827],[77.5946,12.9716],[76.2673,9.9312],[76.9366,8.5241]]},"properties":{"name":"Chennai \u2013 Trivandrum \u2013 Kochi coastal","country":"India","operators":"BSNL, Bharti Airtel","source":"Operator network diagrams (approximate)","approximate":true}},{"type":"Feature","geometry":{"type":"LineString","coordinates":[[72.8777,19.076],[72.5714,23.0225],[75.7873,26.9124],[77.209,28.6139]]},"properties":{"name":"Mumbai \u2013 Ahmedabad \u2013 Jaipur \u2013 Delhi loop","country":"India","operators":"Reliance Jio, Bharti Airtel","source":"Operator press releases (approximate)","approximate":true}},{"type":"Feature","geometry":{"type":"LineString","coordinates":[[83.2185,17.6868],[78.4867,17.385],[80.2707,13.0827]]},"properties":{"name":"Visakhapatnam \u2013 Hyderabad \u2013 Chennai eastern coast","country":"India","operators":"BSNL, Powergrid Telecom","source":"Operator network diagrams (approximate)","approximate":true}},{"type":"Feature","geometry":{"type":"LineString","coordinates":[[67.0011,24.8607],[68.3737,25.396],[68.8589,27.7136],[71.4687,30.1575],[73.0791,31.4504],[74.3587,31.5204],[73.0479,33.6844],[71.5249,34.0151],[75.4254,36.8511]]},"properties":{"name":"CPEC corridor \u2014 Karachi to Khunjerab Pass","country":"Pakistan","operators":"China Mobile Pakistan + CPEC consortium","source":"CPEC documentation + Wikipedia (approximate)","approximate":true}},{"type":"Feature","geometry":{"type":"LineString","coordinates":[[67.0011,24.8607],[68.3737,25.396],[68.8589,27.7136],[71.4687,30.1575]]},"properties":{"name":"PTCL national backbone \u2014 south spine","country":"Pakistan","operators":"PTCL","source":"PTCL public coverage map (approximate)","approximate":true}},{"type":"Feature","geometry":{"type":"LineString","coordinates":[[71.4687,30.1575],[73.0791,31.4504],[74.3587,31.5204],[73.0479,33.6844],[73.0479,33.6007],[71.5249,34.0151]]},"properties":{"name":"PTCL national backbone \u2014 north spine","country":"Pakistan","operators":"PTCL","source":"PTCL public coverage map (approximate)","approximate":true}},{"type":"Feature","geometry":{"type":"LineString","coordinates":[[67.0011,24.8607],[71.4687,30.1575],[74.3587,31.5204],[73.0479,33.6844],[73.0791,31.4504],[71.4687,30.1575]]},"properties":{"name":"Wateen national ring \u2014 Karachi/Lahore/Islamabad","country":"Pakistan","operators":"Wateen Telecom","source":"Wateen network diagram (approximate)","approximate":true}},{"type":"Feature","geometry":{"type":"LineString","coordinates":[[62.3225,25.1216],[67.0011,24.8607]]},"properties":{"name":"Gwadar \u2013 Karachi coastal link","country":"Pakistan","operators":"PTCL, Special Communications Org","source":"Press releases (approximate)","approximate":true}},{"type":"Feature","geometry":{"type":"LineString","coordinates":[[66.975,30.1798],[68.8589,27.7136],[71.4687,30.1575]]},"properties":{"name":"Quetta \u2013 Sukkur \u2013 Multan western corridor","country":"Pakistan","operators":"PTCL, Special Communications Org","source":"PTCL coverage map (approximate)","approximate":true}},{"type":"Feature","geometry":{"type":"LineString","coordinates":[[73.0479,33.6844],[73.0479,33.6007],[74.3587,31.5204]]},"properties":{"name":"Islamabad \u2013 Lahore high-capacity","country":"Pakistan","operators":"PTCL, Wateen, China Mobile Pakistan","source":"Multiple operator network diagrams (approximate)","approximate":true}}]}