{"type":"FeatureCollection","name":"submarine_landing_points_focus","metadata":{"source":"lintaojlu/submarine_cable_information (TeleGeography mirror)","source_url":"https://github.com/lintaojlu/submarine_cable_information","fetched_at":1780470366,"scope":"Landing points whose country is in Africa or South Asia.","point_count":133},"features":[{"type":"Feature","geometry":{"type":"Point","coordinates":[32.28445799999977,31.25927899999988]},"properties":{"id":"port-said-egypt","name":"Port Said, Egypt","country":"Egypt"}},{"type":"Feature","geometry":{"type":"Point","coordinates":[33.082788999999764,28.36590799999985]},"properties":{"id":"ras-ghareb-egypt","name":"Ras Ghareb, Egypt","country":"Egypt"}},{"type":"Feature","geometry":{"type":"Point","coordinates":[43.14583329999982,11.598738889999936]},"properties":{"id":"djibouti-city-djibouti","name":"Djibouti City, Djibouti","country":"Djibouti"}},{"type":"Feature","geometry":{"type":"Point","coordinates":[67.02853899999985,24.889676999999836]},"properties":{"id":"karachi-pakistan","name":"Karachi, Pakistan","country":"Pakistan"}},{"type":"Feature","geometry":{"type":"Point","coordinates":[72.87586599999972,19.07608000000056]},"properties":{"id":"mumbai-india","name":"Mumbai, India","country":"India"}},{"type":"Feature","geometry":{"type":"Point","coordinates":[80.53991299999987,5.940826]},"properties":{"id":"matara-sri-lanka","name":"Matara, Sri Lanka","country":"Sri Lanka"}},{"type":"Feature","geometry":{"type":"Point","coordinates":[91.9949230000004,21.429245]},"properties":{"id":"coxs-bazar-bangladesh","name":"Cox\u2019s Bazar, Bangladesh","country":"Bangladesh"}},{"type":"Feature","geometry":{"type":"Point","coordinates":[-5.391813000000155,35.56590799999984]},"properties":{"id":"ttouan-morocco","name":"T\u00e9touan, Morocco","country":"Morocco"}},{"type":"Feature","geometry":{"type":"Point","coordinates":[-2.93303499999962,35.170020000000136]},"properties":{"id":"nador-morocco","name":"Nador, Morocco","country":"Morocco"}},{"type":"Feature","geometry":{"type":"Point","coordinates":[3.031889999999493,36.76572999999971]},"properties":{"id":"algiers-algeria","name":"Algiers, Algeria","country":"Algeria"}},{"type":"Feature","geometry":{"type":"Point","coordinates":[6.557241714000355,37.00296280000029]},"properties":{"id":"collo-algeria","name":"Collo, Algeria","country":"Algeria"}},{"type":"Feature","geometry":{"type":"Point","coordinates":[43.16166670000027,11.573674999999582]},"properties":{"id":"haramous-djibouti","name":"Haramous, Djibouti","country":"Djibouti"}},{"type":"Feature","geometry":{"type":"Point","coordinates":[55.453028999999816,-4.565748999999727]},"properties":{"id":"carana-seychelles","name":"Carana, Seychelles","country":"Seychelles"}},{"type":"Feature","geometry":{"type":"Point","coordinates":[80.24304900000018,13.06391799999983]},"properties":{"id":"chennai-india","name":"Chennai, India","country":"India"}},{"type":"Feature","geometry":{"type":"Point","coordinates":[29.672355999999496,31.047639999999035]},"properties":{"id":"sidi-kerir-egypt","name":"Sidi Kerir, Egypt","country":"Egypt"}},{"type":"Feature","geometry":{"type":"Point","coordinates":[32.64989400000155,29.116661999999593]},"properties":{"id":"zafarana-egypt","name":"Zafarana, Egypt","country":"Egypt"}},{"type":"Feature","geometry":{"type":"Point","coordinates":[-15.934426000000258,23.721081]},"properties":{"id":"dakhla-morocco","name":"Dakhla, Morocco","country":"Morocco"}},{"type":"Feature","geometry":{"type":"Point","coordinates":[-7.631939228454826,33.605388222844965]},"properties":{"id":"casablanca-morocco","name":"Casablanca, Morocco","country":"Morocco"}},{"type":"Feature","geometry":{"type":"Point","coordinates":[39.672848865100434,-4.05301193811178]},"properties":{"id":"mombasa-kenya","name":"Mombasa, Kenya","country":"Kenya"}},{"type":"Feature","geometry":{"type":"Point","coordinates":[45.01090660700845,10.435139839597326]},"properties":{"id":"berbera-somalia","name":"Berbera, Somalia","country":"Somalia"}},{"type":"Feature","geometry":{"type":"Point","coordinates":[96.16200172862156,16.34039907601519]},"properties":{"id":"letkokkon-myanmar","name":"Letkokkon, Myanmar","country":"Myanmar"}},{"type":"Feature","geometry":{"type":"Point","coordinates":[12.352112369863505,-6.141027019376253]},"properties":{"id":"soyo-angola","name":"Soyo, Angola","country":"Angola"}},{"type":"Feature","geometry":{"type":"Point","coordinates":[12.18983221138734,-5.556551942090351]},"properties":{"id":"cabinda-angola","name":"Cabinda, Angola","country":"Angola"}},{"type":"Feature","geometry":{"type":"Point","coordinates":[32.530031659514265,29.97255276207389]},"properties":{"id":"suez-egypt","name":"Suez, Egypt","country":"Egypt"}},{"type":"Feature","geometry":{"type":"Point","coordinates":[37.21970118887137,19.6155521522995]},"properties":{"id":"port-sudan-sudan","name":"Port Sudan, Sudan","country":"Sudan"}},{"type":"Feature","geometry":{"type":"Point","coordinates":[45.344158324054746,2.041165502382569]},"properties":{"id":"mogadishu-somalia","name":"Mogadishu, Somalia","country":"Somalia"}},{"type":"Feature","geometry":{"type":"Point","coordinates":[39.2696997366333,-6.822986816654918]},"properties":{"id":"dar-es-salaam-tanzania","name":"Dar Es Salaam, Tanzania","country":"Tanzania"}},{"type":"Feature","geometry":{"type":"Point","coordinates":[32.580641975224495,-25.96817092953566]},"properties":{"id":"maputo-mozambique","name":"Maputo, Mozambique","country":"Mozambique"}},{"type":"Feature","geometry":{"type":"Point","coordinates":[40.68544580401738,-14.565606565477566]},"properties":{"id":"nacala-mozambique","name":"Nacala, Mozambique","country":"Mozambique"}},{"type":"Feature","geometry":{"type":"Point","coordinates":[46.31551994061999,-15.713729798684284]},"properties":{"id":"mahajanga-madagascar","name":"Mahajanga, Madagascar","country":"Madagascar"}},{"type":"Feature","geometry":{"type":"Point","coordinates":[31.757864237774868,-28.950437930347448]},"properties":{"id":"mtunzini-south-africa","name":"Mtunzini, South Africa","country":"South Africa"}},{"type":"Feature","geometry":{"type":"Point","coordinates":[18.421985013161873,-33.91909390231618]},"properties":{"id":"cape-town-south-africa","name":"Cape Town, South Africa","country":"South Africa"}},{"type":"Feature","geometry":{"type":"Point","coordinates":[25.623273857015164,-33.96249877250449]},"properties":{"id":"port-elizabeth-south-africa","name":"Port Elizabeth, South Africa","country":"South Africa"}},{"type":"Feature","geometry":{"type":"Point","coordinates":[9.454339998738732,0.394512925065328]},"properties":{"id":"libreville-gabon","name":"Libreville, Gabon","country":"Gabon"}},{"type":"Feature","geometry":{"type":"Point","coordinates":[3.423509310097813,6.439093189951876]},"properties":{"id":"lagos-nigeria","name":"Lagos, Nigeria","country":"Nigeria"}},{"type":"Feature","geometry":{"type":"Point","coordinates":[-0.200914391857452,5.558502094915184]},"properties":{"id":"accra-ghana","name":"Accra, Ghana","country":"Ghana"}},{"type":"Feature","geometry":{"type":"Point","coordinates":[-4.026253478826362,5.323494303815522]},"properties":{"id":"abidjan-cte-divoire","name":"Abidjan, C\u00f4te d'Ivoire","country":"C\u00f4te d'Ivoire"}},{"type":"Feature","geometry":{"type":"Point","coordinates":[-17.45192756170286,14.686668562834853]},"properties":{"id":"dakar-senegal","name":"Dakar, Senegal","country":"Senegal"}},{"type":"Feature","geometry":{"type":"Point","coordinates":[30.901573844939975,-30.02165003123855]},"properties":{"id":"umbogintwini-south-africa","name":"Umbogintwini, South Africa","country":"South Africa"}},{"type":"Feature","geometry":{"type":"Point","coordinates":[9.341400937157914,1.175260843995147]},"properties":{"id":"cabo-san-juan-equatorial-guinea","name":"Cabo San Juan, Equatorial Guinea","country":"Equatorial Guinea"}},{"type":"Feature","geometry":{"type":"Point","coordinates":[9.319591736686618,0.934855533287646]},"properties":{"id":"corisco-equatorial-guinea","name":"Corisco, Equatorial Guinea","country":"Equatorial Guinea"}},{"type":"Feature","geometry":{"type":"Point","coordinates":[-23.521210371540917,14.923187578095792]},"properties":{"id":"praia-cape-verde","name":"Praia, Cape Verde","country":"Cape Verde"}},{"type":"Feature","geometry":{"type":"Point","coordinates":[-22.919037946563606,16.17717201927161]},"properties":{"id":"sal-rei-cape-verde","name":"Sal Rei, Cape Verde","country":"Cape Verde"}},{"type":"Feature","geometry":{"type":"Point","coordinates":[-22.935309907692385,16.677109657860797]},"properties":{"id":"murdeira-cape-verde","name":"Murdeira, Cape Verde","country":"Cape Verde"}},{"type":"Feature","geometry":{"type":"Point","coordinates":[-24.357159486377725,16.565883323041476]},"properties":{"id":"tarrafalsao-nicolau-cape-verde","name":"Tarrafal\u2014Sao Nicolau, Cape Verde","country":"Cape Verde"}},{"type":"Feature","geometry":{"type":"Point","coordinates":[-25.060808890249945,16.8234218118491]},"properties":{"id":"sao-pedro-cape-verde","name":"Sao Pedro, Cape Verde","country":"Cape Verde"}},{"type":"Feature","geometry":{"type":"Point","coordinates":[-23.7510686071453,15.276847576817431]},"properties":{"id":"tarrafalsantiago-cape-verde","name":"Tarrafal\u2014Santiago, Cape Verde","country":"Cape Verde"}},{"type":"Feature","geometry":{"type":"Point","coordinates":[-25.05944170371845,17.01920048093112]},"properties":{"id":"porto-novosanto-antao-cape-verde","name":"Porto Novo\u2014Santo Antao, Cape Verde","country":"Cape Verde"}},{"type":"Feature","geometry":{"type":"Point","coordinates":[-24.695403875669342,14.872992709660735]},"properties":{"id":"nova-sintra-cape-verde","name":"Nova Sintra, Cape Verde","country":"Cape Verde"}},{"type":"Feature","geometry":{"type":"Point","coordinates":[-24.500921591567447,14.89714197148703]},"properties":{"id":"sao-filipe-cape-verde","name":"Sao Filipe, Cape Verde","country":"Cape Verde"}},{"type":"Feature","geometry":{"type":"Point","coordinates":[-23.209784810907763,15.13835540576909]},"properties":{"id":"vila-do-maio-cape-verde","name":"Vila do Maio, Cape Verde","country":"Cape Verde"}},{"type":"Feature","geometry":{"type":"Point","coordinates":[48.522036291699095,5.350156507108096]},"properties":{"id":"hobyo-somalia","name":"Hobyo, Somalia","country":"Somalia"}},{"type":"Feature","geometry":{"type":"Point","coordinates":[42.54516145608429,-0.362712155658414]},"properties":{"id":"kismayo-somalia","name":"Kismayo, Somalia","country":"Somalia"}},{"type":"Feature","geometry":{"type":"Point","coordinates":[6.733297177107914,0.333291349734822]},"properties":{"id":"sao-tome-sao-tome-and-principe","name":"Sao Tome, Sao Tome and Principe","country":"Sao Tome and Principe"}},{"type":"Feature","geometry":{"type":"Point","coordinates":[5.636850199935424,-1.435134530086856]},"properties":{"id":"annobon-equatorial-guinea","name":"Annobon, Equatorial Guinea","country":"Equatorial Guinea"}},{"type":"Feature","geometry":{"type":"Point","coordinates":[96.24822399826891,16.758743940312797]},"properties":{"id":"thanlyin-myanmar","name":"Thanlyin, Myanmar","country":"Myanmar"}},{"type":"Feature","geometry":{"type":"Point","coordinates":[93.92740511526486,7.031330621106264]},"properties":{"id":"great-nicobar-india","name":"Great Nicobar, India","country":"India"}},{"type":"Feature","geometry":{"type":"Point","coordinates":[93.48140933746257,8.172231912838214]},"properties":{"id":"kamorta-india","name":"Kamorta, India","country":"India"}},{"type":"Feature","geometry":{"type":"Point","coordinates":[92.81644398821717,9.177491191419136]},"properties":{"id":"car-nicobar-india","name":"Car Nicobar, India","country":"India"}},{"type":"Feature","geometry":{"type":"Point","coordinates":[92.59715703418706,10.709053093381414]},"properties":{"id":"little-andaman-india","name":"Little Andaman, India","country":"India"}},{"type":"Feature","geometry":{"type":"Point","coordinates":[92.72647823163769,11.623381524823145]},"properties":{"id":"port-blair-india","name":"Port Blair, India","country":"India"}},{"type":"Feature","geometry":{"type":"Point","coordinates":[92.98756203105867,11.97605767788474]},"properties":{"id":"havelock-india","name":"Havelock, India","country":"India"}},{"type":"Feature","geometry":{"type":"Point","coordinates":[92.93507183386814,12.396491032226692]},"properties":{"id":"long-island-india","name":"Long Island, India","country":"India"}},{"type":"Feature","geometry":{"type":"Point","coordinates":[92.91385602858449,12.506947715390226]},"properties":{"id":"rangat-india","name":"Rangat, India","country":"India"}},{"type":"Feature","geometry":{"type":"Point","coordinates":[7.99743463088214,4.543803638521524]},"properties":{"id":"kwa-ibo-nigeria","name":"Kwa Ibo, Nigeria","country":"Nigeria"}},{"type":"Feature","geometry":{"type":"Point","coordinates":[57.495126451326854,-20.12211965245305]},"properties":{"id":"baie-du-tombeau-mauritius","name":"Baie du Tombeau, Mauritius","country":"Mauritius"}},{"type":"Feature","geometry":{"type":"Point","coordinates":[46.985375573694,-25.02253245968302]},"properties":{"id":"fort-dauphin-madagascar","name":"Fort Dauphin, Madagascar","country":"Madagascar"}},{"type":"Feature","geometry":{"type":"Point","coordinates":[63.44823384600892,-19.674345590458557]},"properties":{"id":"grand-baie-rodrigues-mauritius","name":"Grand Baie (Rodrigues), Mauritius","country":"Mauritius"}},{"type":"Feature","geometry":{"type":"Point","coordinates":[-15.791145687980361,11.774131923775144]},"properties":{"id":"suro-guinea-bissau","name":"Suro, Guinea-Bissau","country":"Guinea-Bissau"}},{"type":"Feature","geometry":{"type":"Point","coordinates":[18.449914853508034,-33.69332250414635]},"properties":{"id":"duynefontein-south-africa","name":"Duynefontein, South Africa","country":"South Africa"}},{"type":"Feature","geometry":{"type":"Point","coordinates":[62.32496971736171,25.132264042220044]},"properties":{"id":"gwadar-pakistan","name":"Gwadar, Pakistan","country":"Pakistan"}},{"type":"Feature","geometry":{"type":"Point","coordinates":[79.86679011789849,6.833211066334002]},"properties":{"id":"mt-lavinia-sri-lanka","name":"Mt. Lavinia, Sri Lanka","country":"Sri Lanka"}},{"type":"Feature","geometry":{"type":"Point","coordinates":[13.20144427784794,-9.490068430331263]},"properties":{"id":"sangano-angola","name":"Sangano, Angola","country":"Angola"}},{"type":"Feature","geometry":{"type":"Point","coordinates":[34.89487373423802,29.49257805463958]},"properties":{"id":"taba-egypt","name":"Taba, Egypt","country":"Egypt"}},{"type":"Feature","geometry":{"type":"Point","coordinates":[49.187930015152716,11.275567682156549]},"properties":{"id":"bosaso-somalia","name":"Bosaso, Somalia","country":"Somalia"}},{"type":"Feature","geometry":{"type":"Point","coordinates":[90.11661195839056,21.81673555170019]},"properties":{"id":"kuakata-bangladesh","name":"Kuakata, Bangladesh","country":"Bangladesh"}},{"type":"Feature","geometry":{"type":"Point","coordinates":[94.39121830521921,16.858028367792087]},"properties":{"id":"ngwe-saung-myanmar","name":"Ngwe Saung, Myanmar","country":"Myanmar"}},{"type":"Feature","geometry":{"type":"Point","coordinates":[43.73959403105519,-12.288236282174637]},"properties":{"id":"fomboni-moheli-comoros","name":"Fomboni Moheli, Comoros","country":"Comoros"}},{"type":"Feature","geometry":{"type":"Point","coordinates":[44.400042781936975,-12.166656649737234]},"properties":{"id":"mutsamudu-comoros","name":"Mutsamudu, Comoros","country":"Comoros"}},{"type":"Feature","geometry":{"type":"Point","coordinates":[43.48910592725335,-11.923498177297489]},"properties":{"id":"chindini-comoros","name":"Chindini, Comoros","country":"Comoros"}},{"type":"Feature","geometry":{"type":"Point","coordinates":[25.087361150721847,31.760813307797036]},"properties":{"id":"el-quawef-libya","name":"El-Quawef, Libya","country":"Libya"}},{"type":"Feature","geometry":{"type":"Point","coordinates":[79.88927545353178,6.820387603783331]},"properties":{"id":"ratmalana-sri-lanka","name":"Ratmalana, Sri Lanka","country":"Sri Lanka"}},{"type":"Feature","geometry":{"type":"Point","coordinates":[8.781610983118213,-0.721040306474947]},"properties":{"id":"port-gentil-gabon","name":"Port Gentil, Gabon","country":"Gabon"}},{"type":"Feature","geometry":{"type":"Point","coordinates":[23.96031116788359,32.079604155442524]},"properties":{"id":"tubruq-libya","name":"Tubruq, Libya","country":"Libya"}},{"type":"Feature","geometry":{"type":"Point","coordinates":[21.74166039584773,32.88172722141812]},"properties":{"id":"al-bayda-libya","name":"Al Bayda, Libya","country":"Libya"}},{"type":"Feature","geometry":{"type":"Point","coordinates":[20.949961737944477,32.7167319823823]},"properties":{"id":"tolmeta-libya","name":"Tolmeta, Libya","country":"Libya"}},{"type":"Feature","geometry":{"type":"Point","coordinates":[20.0667592386134,32.11658375707046]},"properties":{"id":"benghazi-libya","name":"Benghazi, Libya","country":"Libya"}},{"type":"Feature","geometry":{"type":"Point","coordinates":[19.576525210899774,30.37810849301232]},"properties":{"id":"brega-libya","name":"Brega, Libya","country":"Libya"}},{"type":"Feature","geometry":{"type":"Point","coordinates":[18.41187759844715,30.58673750269537]},"properties":{"id":"ras-lanuf-libya","name":"Ras Lanuf, Libya","country":"Libya"}},{"type":"Feature","geometry":{"type":"Point","coordinates":[16.58834373400552,31.205251640496385]},"properties":{"id":"sirte-libya","name":"Sirte, Libya","country":"Libya"}},{"type":"Feature","geometry":{"type":"Point","coordinates":[15.094790104552942,32.374278843691116]},"properties":{"id":"misrata-libya","name":"Misrata, Libya","country":"Libya"}},{"type":"Feature","geometry":{"type":"Point","coordinates":[14.264419599045283,32.64966152384906]},"properties":{"id":"al-khums-libya","name":"Al Khums, Libya","country":"Libya"}},{"type":"Feature","geometry":{"type":"Point","coordinates":[12.529752859149369,32.774720416295395]},"properties":{"id":"zawia-libya","name":"Zawia, Libya","country":"Libya"}},{"type":"Feature","geometry":{"type":"Point","coordinates":[12.083366456623793,32.93337907602344]},"properties":{"id":"zuwara-libya","name":"Zuwara, Libya","country":"Libya"}},{"type":"Feature","geometry":{"type":"Point","coordinates":[8.783368794373132,3.749792920040846]},"properties":{"id":"malabo-equatorial-guinea","name":"Malabo, Equatorial Guinea","country":"Equatorial Guinea"}},{"type":"Feature","geometry":{"type":"Point","coordinates":[29.889799154879768,31.191886381300293]},"properties":{"id":"alexandria-egypt","name":"Alexandria, Egypt","country":"Egypt"}},{"type":"Feature","geometry":{"type":"Point","coordinates":[95.68194004710986,16.28219994582068]},"properties":{"id":"pyapon-myanmar","name":"Pyapon, Myanmar","country":"Myanmar"}},{"type":"Feature","geometry":{"type":"Point","coordinates":[76.2695514552781,9.938085366963747]},"properties":{"id":"cochin-india","name":"Cochin, India","country":"India"}},{"type":"Feature","geometry":{"type":"Point","coordinates":[2.439916256884288,6.356578143137085]},"properties":{"id":"cotonou-benin","name":"Cotonou, Benin","country":"Benin"}},{"type":"Feature","geometry":{"type":"Point","coordinates":[13.372330387259552,-8.776676133719576]},"properties":{"id":"cacuaco-angola","name":"Cacuaco, Angola","country":"Angola"}},{"type":"Feature","geometry":{"type":"Point","coordinates":[18.445764293191417,-33.72721429783107]},"properties":{"id":"melkbosstrand-south-africa","name":"Melkbosstrand, South Africa","country":"South Africa"}},{"type":"Feature","geometry":{"type":"Point","coordinates":[9.706317359297685,4.047149594894734]},"properties":{"id":"douala-cameroon","name":"Douala, Cameroon","country":"Cameroon"}},{"type":"Feature","geometry":{"type":"Point","coordinates":[57.48538507465784,-20.473998881300616]},"properties":{"id":"baie-jacotet-mauritius","name":"Baie Jacotet, Mauritius","country":"Mauritius"}},{"type":"Feature","geometry":{"type":"Point","coordinates":[2.901439367437092,36.80021914596014]},"properties":{"id":"el-djamila-algeria","name":"El Djamila, Algeria","country":"Algeria"}},{"type":"Feature","geometry":{"type":"Point","coordinates":[43.66312924147357,-23.354761383307448]},"properties":{"id":"toliara-madagascar","name":"Toliara, Madagascar","country":"Madagascar"}},{"type":"Feature","geometry":{"type":"Point","coordinates":[13.18727192460679,32.87729851774509]},"properties":{"id":"tripoli-libya","name":"Tripoli, Libya","country":"Libya"}},{"type":"Feature","geometry":{"type":"Point","coordinates":[79.87199030952664,6.926734329228339]},"properties":{"id":"colombo-sri-lanka","name":"Colombo, Sri Lanka","country":"Sri Lanka"}},{"type":"Feature","geometry":{"type":"Point","coordinates":[9.867352401468935,37.27634951365664]},"properties":{"id":"bizerte-tunisia","name":"Bizerte, Tunisia","country":"Tunisia"}},{"type":"Feature","geometry":{"type":"Point","coordinates":[7.755439835067534,36.90234352923105]},"properties":{"id":"annaba-algeria","name":"Annaba, Algeria","country":"Algeria"}},{"type":"Feature","geometry":{"type":"Point","coordinates":[78.14513606409648,8.802197481673602]},"properties":{"id":"tuticorine-india","name":"Tuticorine, India","country":"India"}},{"type":"Feature","geometry":{"type":"Point","coordinates":[76.97023455265756,8.79814420594613]},"properties":{"id":"trivendrum-india","name":"Trivendrum, India","country":"India"}},{"type":"Feature","geometry":{"type":"Point","coordinates":[-6.035761332616119,35.470776894974364]},"properties":{"id":"asilah-morocco","name":"Asilah, Morocco","country":"Morocco"}},{"type":"Feature","geometry":{"type":"Point","coordinates":[-0.641966325506104,35.701644687598105]},"properties":{"id":"oran-algeria","name":"Oran, Algeria","country":"Algeria"}},{"type":"Feature","geometry":{"type":"Point","coordinates":[11.08991012914754,36.849310578247895]},"properties":{"id":"kelibia-tunisia","name":"Kelibia, Tunisia","country":"Tunisia"}},{"type":"Feature","geometry":{"type":"Point","coordinates":[43.24340297631164,-11.700694108521787]},"properties":{"id":"moroni-comoros","name":"Moroni, Comoros","country":"Comoros"}},{"type":"Feature","geometry":{"type":"Point","coordinates":[29.702494600068064,31.07184873173793]},"properties":{"id":"abu-talat-egypt","name":"Abu Talat, Egypt","country":"Egypt"}},{"type":"Feature","geometry":{"type":"Point","coordinates":[49.40033220843509,-18.146178330153475]},"properties":{"id":"toamasina-madagascar","name":"Toamasina, Madagascar","country":"Madagascar"}},{"type":"Feature","geometry":{"type":"Point","coordinates":[57.51009208840517,-20.077808728343882]},"properties":{"id":"terre-rouge-mauritius","name":"Terre Rouge, Mauritius","country":"Mauritius"}},{"type":"Feature","geometry":{"type":"Point","coordinates":[-15.978283586115026,18.083870571147884]},"properties":{"id":"nouakchott-mauritania","name":"Nouakchott, Mauritania","country":"Mauritania"}},{"type":"Feature","geometry":{"type":"Point","coordinates":[-16.581359330765565,13.455945272538713]},"properties":{"id":"banjul-gambia","name":"Banjul, Gambia","country":"Gambia"}},{"type":"Feature","geometry":{"type":"Point","coordinates":[-13.703822306739795,9.51362445369898]},"properties":{"id":"conakry-guinea","name":"Conakry, Guinea","country":"Guinea"}},{"type":"Feature","geometry":{"type":"Point","coordinates":[-13.238099980411846,8.485330684414834]},"properties":{"id":"freetown-sierra-leone","name":"Freetown, Sierra Leone","country":"Sierra Leone"}},{"type":"Feature","geometry":{"type":"Point","coordinates":[-10.797183740829837,6.300076440551095]},"properties":{"id":"monrovia-liberia","name":"Monrovia, Liberia","country":"Liberia"}},{"type":"Feature","geometry":{"type":"Point","coordinates":[1.227807740553459,6.126007437636389]},"properties":{"id":"lome-togo","name":"Lome, Togo","country":"Togo"}},{"type":"Feature","geometry":{"type":"Point","coordinates":[9.768231377937155,1.86006953404933]},"properties":{"id":"bata-equatorial-guinea","name":"Bata, Equatorial Guinea","country":"Equatorial Guinea"}},{"type":"Feature","geometry":{"type":"Point","coordinates":[18.15553012379604,-33.34822369818508]},"properties":{"id":"yzerfontein-south-africa","name":"Yzerfontein, South Africa","country":"South Africa"}},{"type":"Feature","geometry":{"type":"Point","coordinates":[14.528091287257723,-22.678326281671815]},"properties":{"id":"swakopmund-namibia","name":"Swakopmund, Namibia","country":"Namibia"}},{"type":"Feature","geometry":{"type":"Point","coordinates":[9.208466149480103,4.014515699201951]},"properties":{"id":"limbe-cameroon","name":"Limbe, Cameroon","country":"Cameroon"}},{"type":"Feature","geometry":{"type":"Point","coordinates":[13.235025797027419,-8.812854559864036]},"properties":{"id":"luanda-angola","name":"Luanda, Angola","country":"Angola"}},{"type":"Feature","geometry":{"type":"Point","coordinates":[9.91041877721031,2.932917598068485]},"properties":{"id":"kribi-cameroon","name":"Kribi, Cameroon","country":"Cameroon"}},{"type":"Feature","geometry":{"type":"Point","coordinates":[22.63921835375919,32.7635527751755]},"properties":{"id":"derna-libya","name":"Derna, Libya","country":"Libya"}},{"type":"Feature","geometry":{"type":"Point","coordinates":[39.700046111458704,-4.050503576490826]},"properties":{"id":"nyali-kenya","name":"Nyali, Kenya","country":"Kenya"}},{"type":"Feature","geometry":{"type":"Point","coordinates":[55.44505448879704,-4.617612256899577]},"properties":{"id":"victoria-seychelles","name":"Victoria, Seychelles","country":"Seychelles"}}]}